{
  "norad_id": 53781,
  "name": "STARLINK-4462",
  "history": [
    {
      "epoch": "2026-03-28T17:59:56.625216Z",
      "apogee_km": 540.7301712805647,
      "perigee_km": 538.7152754575354,
      "latitude_deg": 1.3476177174271296e-05,
      "longitude_deg": 92.40074051908965,
      "height_km": 540.6659564727657,
      "semi_major_axis_km": 6917.85972336905,
      "eccentricity": 0.00014563,
      "inclination_deg": 53.2169,
      "raan_deg": 188.5526,
      "arg_perigee_deg": 92.7145,
      "mean_anomaly_deg": 267.4014,
      "mean_motion_rev_day": 15.08846761
    },
    {
      "epoch": "2026-03-29T06:43:02.164224Z",
      "apogee_km": 540.7309458419822,
      "perigee_km": 538.7953173851565,
      "latitude_deg": 2.7685943314101443e-06,
      "longitude_deg": -101.27366472868206,
      "height_km": 540.7342058102819,
      "semi_major_axis_km": 6917.900131613569,
      "eccentricity": 0.0001399,
      "inclination_deg": 53.2168,
      "raan_deg": 186.1736,
      "arg_perigee_deg": 94.4733,
      "mean_anomaly_deg": 265.6419,
      "mean_motion_rev_day": 15.08833541
    },
    {
      "epoch": "2026-03-30T11:19:59.040768Z",
      "apogee_km": 540.774179246042,
      "perigee_km": 538.744191789363,
      "latitude_deg": 2.6684371231636063e-06,
      "longitude_deg": -177.03805859884176,
      "height_km": 540.7153430743363,
      "semi_major_axis_km": 6917.896185517702,
      "eccentricity": 0.00014672,
      "inclination_deg": 53.2169,
      "raan_deg": 180.8214,
      "arg_perigee_deg": 93.4259,
      "mean_anomaly_deg": 266.6901,
      "mean_motion_rev_day": 15.08834832
    },
    {
      "epoch": "2026-03-30T22:27:35.321472Z",
      "apogee_km": 540.7117861722008,
      "perigee_km": 538.3741637550611,
      "latitude_deg": -1.441909611764247e-06,
      "longitude_deg": 13.522010115751359,
      "height_km": 540.243756543136,
      "semi_major_axis_km": 6917.67997496363,
      "eccentricity": 0.00016896,
      "inclination_deg": 53.2169,
      "raan_deg": 178.7396,
      "arg_perigee_deg": 80.4224,
      "mean_anomaly_deg": 279.6959,
      "mean_motion_rev_day": 15.0890557
    },
    {
      "epoch": "2026-03-31T12:46:10.358112Z",
      "apogee_km": 540.4901742590155,
      "perigee_km": 539.1518261042993,
      "latitude_deg": 4.796076723508512e-06,
      "longitude_deg": 155.61384974768018,
      "height_km": 540.7070600963748,
      "semi_major_axis_km": 6917.958000181657,
      "eccentricity": 9.673e-05,
      "inclination_deg": 53.2167,
      "raan_deg": 176.0651,
      "arg_perigee_deg": 89.1356,
      "mean_anomaly_deg": 270.9747,
      "mean_motion_rev_day": 15.08814609
    },
    {
      "epoch": "2026-04-01T12:36:57.855168Z",
      "apogee_km": 540.6001805886963,
      "perigee_km": 539.0076705876263,
      "latitude_deg": -1.1482212330751276e-05,
      "longitude_deg": 152.477192486702,
      "height_km": 540.8351671784857,
      "semi_major_axis_km": 6917.940925588161,
      "eccentricity": 0.0001151,
      "inclination_deg": 53.2178,
      "raan_deg": 171.6057,
      "arg_perigee_deg": 99.7753,
      "mean_anomaly_deg": 260.3369,
      "mean_motion_rev_day": 15.08820195
    },
    {
      "epoch": "2026-04-02T09:16:57.590688Z",
      "apogee_km": 540.5009558765314,
      "perigee_km": 538.9340618302758,
      "latitude_deg": -5.7341165261005664e-05,
      "longitude_deg": -162.23678557927528,
      "height_km": 540.6582480782351,
      "semi_major_axis_km": 6917.854508853403,
      "eccentricity": 0.00011325,
      "inclination_deg": 53.2175,
      "raan_deg": 167.7394,
      "arg_perigee_deg": 93.2706,
      "mean_anomaly_deg": 266.8415,
      "mean_motion_rev_day": 15.08848467
    },
    {
      "epoch": "2026-04-02T22:00:03.118464Z",
      "apogee_km": 540.5219130040368,
      "perigee_km": 539.0102128267272,
      "latitude_deg": 4.802642491607234e-06,
      "longitude_deg": 4.089410592971809,
      "height_km": 540.7750763863424,
      "semi_major_axis_km": 6917.903062915381,
      "eccentricity": 0.00010926,
      "inclination_deg": 53.2165,
      "raan_deg": 165.3609,
      "arg_perigee_deg": 98.6,
      "mean_anomaly_deg": 261.5116,
      "mean_motion_rev_day": 15.08832582
    },
    {
      "epoch": "2026-04-03T12:18:31.045248Z",
      "apogee_km": 540.421988281606,
      "perigee_km": 538.9566543102292,
      "latitude_deg": 6.310703662704709e-06,
      "longitude_deg": 146.20915141530588,
      "height_km": 540.657123572793,
      "semi_major_axis_km": 6917.826321295917,
      "eccentricity": 0.00010591,
      "inclination_deg": 53.2162,
      "raan_deg": 162.6846,
      "arg_perigee_deg": 95.624,
      "mean_anomaly_deg": 264.4873,
      "mean_motion_rev_day": 15.08857689
    },
    {
      "epoch": "2026-04-04T04:12:22.332672Z",
      "apogee_km": 540.4537403528157,
      "perigee_km": 538.9506322544148,
      "latitude_deg": -2.4656462183909233e-05,
      "longitude_deg": -95.87905981760485,
      "height_km": 540.5455608057254,
      "semi_major_axis_km": 6917.839186303615,
      "eccentricity": 0.00010864,
      "inclination_deg": 53.2171,
      "raan_deg": 159.713,
      "arg_perigee_deg": 85.98,
      "mean_anomaly_deg": 274.1316,
      "mean_motion_rev_day": 15.0885348
    },
    {
      "epoch": "2026-04-05T13:35:28.827168Z",
      "apogee_km": 540.6262116348071,
      "perigee_km": 538.939622758995,
      "latitude_deg": -5.6723860408466004e-05,
      "longitude_deg": 115.72607526879743,
      "height_km": 540.6475638744236,
      "semi_major_axis_km": 6917.919917196901,
      "eccentricity": 0.0001219,
      "inclination_deg": 53.217,
      "raan_deg": 153.4663,
      "arg_perigee_deg": 87.8786,
      "mean_anomaly_deg": 272.2345,
      "mean_motion_rev_day": 15.08827068
    }
  ]
}